{
  "norad_id": 57941,
  "name": "STARLINK-30715",
  "history": [
    {
      "epoch": "2026-03-28T19:24:46.660896",
      "apogee_km": 476.2614283597086,
      "perigee_km": 474.1452539291704,
      "latitude_deg": -24.636809573060614,
      "longitude_deg": 51.75184544012882,
      "semi_major_axis_km": 6853.340341144439,
      "eccentricity": 0.00015439,
      "inclination_deg": 53.1592,
      "raan_deg": 285.1804,
      "arg_perigee_deg": 96.7018,
      "mean_anomaly_deg": 263.4159,
      "mean_motion_rev_day": 15.30203928
    }
  ]
}