{"fetched_at":"2026-03-29T16:36:15Z","count":15609,"tles":[{"name":"STARLINK-30715","line1":"1 57941U 23148G   26087.80887339 -.00000930  00000+0 -19251-4 0  9998","line2":"2 57941  53.1592 285.1804 0001543  96.7018 263.4159 15.30203928141497","category":"Starlink"}]}